[{"OBJECT_NAME":"STARLINK-31904","OBJECT_ID":"2024-084D","EPOCH":"2026-03-09T07:20:14.144928","MEAN_MOTION":15.27572673,"ECCENTRICITY":3.895e-5,"INCLINATION":43.0027,"RA_OF_ASC_NODE":44.0346,"ARG_OF_PERICENTER":294.2534,"MEAN_ANOMALY":65.8277,"EPHEMERIS_TYPE":0,"CLASSIFICATION_TYPE":"U","NORAD_CAT_ID":59657,"ELEMENT_SET_NO":999,"REV_AT_EPOCH":10431,"BSTAR":-6.933349e-5,"MEAN_MOTION_DOT":-2.169e-5,"MEAN_MOTION_DDOT":0},{"OBJECT_NAME":"COSMOS 1174","OBJECT_ID":"1980-030A","EPOCH":"2026-03-09T17:59:04.929504","MEAN_MOTION":14.57287568,"ECCENTRICITY":0.04764693,"INCLINATION":66.08,"RA_OF_ASC_NODE":145.2035,"ARG_OF_PERICENTER":169.2768,"MEAN_ANOMALY":191.8955,"EPHEMERIS_TYPE":0,"CLASSIFICATION_TYPE":"U","NORAD_CAT_ID":11765,"ELEMENT_SET_NO":999,"REV_AT_EPOCH":36443,"BSTAR":0.00027813385,"MEAN_MOTION_DOT":6.298e-5,"MEAN_MOTION_DDOT":0}]
